0 FENGYUN 1C DEB
1 37719U 99025EML 13280.41097983  .00001210  00000-0  48837-3 0  1064
2 37719 099.4992 148.2006 0065232 159.8111 200.5646 14.28870990215162
0 FENGYUN 1C DEB
1 37719U 99025EML 13284.40236870  .00001375  00000-0  55182-3 0  1071
2 37719 099.4976 152.5446 0065763 148.3964 212.1507 14.28883644215736
0 FENGYUN 1C DEB
1 37719U 99025EML 13286.85319376  .00001420  00000-0  56979-3 0  1082
2 37719 099.4955 155.2105 0064359 140.9930 219.5886 14.28891539216088
0 FENGYUN 1C DEB
1 37719U 99025EML 13287.41338228  .00001474  00000-0  59005-3 0  1095
2 37719 099.4963 155.8201 0065468 139.5513 221.0698 14.28894001216168
0 FENGYUN 1C DEB
1 37719U 99025EML 13290.42437549  .00001501  00000-0  60022-3 0  1100
2 37719 099.4974 159.0960 0065884 131.1087 229.5935 14.28903769216590
0 FENGYUN 1C DEB
1 37719U 99025EML 13291.40469214  .00001582  00000-0  63155-3 0  1113
2 37719 099.4988 160.1640 0066300 128.3554 232.3966 14.28908708216734
0 FENGYUN 1C DEB
1 37719U 99025EML 13293.85546887  .00001636  00000-0  65362-3 0  1129
2 37719 099.4936 162.8263 0063314 120.0995 240.6689 14.28918447217081
